NORAD_CAT_ID,OBJECT_NAME,OBJECT_TYPE,EPOCH,MEAN_MOTION,ECCENTRICITY,INCLINATION,RA_OF_ASC_NODE,ARG_OF_PERICENTER,MEAN_ANOMALY,BSTAR,MEAN_MOTION_DOT,MEAN_MOTION_DDOT,TLE_LINE0,TLE_LINE1,TLE_LINE2,SEMIMAJOR_AXIS,PERIOD,APOGEE,PERIGEE,DECAYED
51858.0,STARLINK-3563,PAYLOAD,2023-12-14 13:28:39,15.08847052,0.0001455,53.2177,82.8606,90.4503,269.6656,0.00014438,2.011e-05,0.0,0 STARLINK-3563,1 51858U 22022G   23348.56156512  .00002011  00000-0  14438-3 0  9993,2 51858  53.2177  82.8606 0001455  90.4503 269.6656 15.08847052 99817,6917.859,95.437,540.73,538.717,0.0
51858.0,STARLINK-3563,PAYLOAD,2023-12-15 11:44:03,15.08839432,0.0001642,53.2187,78.7001,105.7426,254.3747,0.0001986,2.874e-05,0.0,0 STARLINK-3563,1 51858U 22022G   23349.48893010  .00002874  00000-0  19860-3 0  9997,2 51858  53.2187  78.7001 0001642 105.7426 254.3747 15.08839432 99953,6917.882,95.438,540.883,538.611,0.0
51858.0,STARLINK-3563,PAYLOAD,2023-12-15 13:19:26,15.08839698,0.0001541,53.2184,78.4009,97.827,262.2897,0.00019902,2.881e-05,0.0,0 STARLINK-3563,1 51858U 22022G   23349.55517015  .00002881  00000-0  19902-3 0  9998,2 51858  53.2184  78.4009 0001541  97.8270 262.2897 15.08839698 99960,6917.881,95.438,540.812,538.68,0.0
51858.0,STARLINK-3563,PAYLOAD,2023-12-16 13:10:13,15.0884861,0.0001584,53.2187,73.9372,83.7249,276.3924,2.5864e-05,1.24e-06,0.0,0 STARLINK-3563,1 51858U 22022G   23350.54876835  .00000124  00000-0  25864-4 0  9990,2 51858  53.2187  73.9372 0001584  83.7249 276.3924 15.08848610100114,6917.854,95.437,540.815,538.623,0.0
51858.0,STARLINK-3563,PAYLOAD,2023-12-17 11:25:38,15.08841056,0.0001504,53.2181,69.7757,69.5373,290.5781,-5.3474e-05,-1.139e-05,0.0,0 STARLINK-3563,1 51858U 22022G   23351.47613470 -.00001139  00000-0 -53474-4 0  9994,2 51858  53.2181  69.7757 0001504  69.5373 290.5781 15.08841056100251,6917.877,95.437,540.783,538.702,0.0
51858.0,STARLINK-3563,PAYLOAD,2023-12-17 13:01:01,15.08843191,0.0001538,53.2184,69.4792,69.7133,290.4024,-3.3705e-05,-8.24e-06,0.0,0 STARLINK-3563,1 51858U 22022G   23351.54237300 -.00000824  00000-0 -33705-4 0  9991,2 51858  53.2184  69.4792 0001538  69.7133 290.4024 15.08843191100265,6917.871,95.437,540.8,538.672,0.0
51858.0,STARLINK-3563,PAYLOAD,2023-12-18 12:51:47,15.08823813,0.0001832,53.2187,65.0217,62.8654,297.2525,-0.00014297,-2.562e-05,0.0,0 STARLINK-3563,1 51858U 22022G   23352.53597166 -.00002562  00000-0 -14297-3 0  9995,2 51858  53.2187  65.0217 0001832  62.8654 297.2525 15.08823813100418,6917.93,95.439,541.062,538.528,0.0
51858.0,STARLINK-3563,PAYLOAD,2023-12-19 11:07:12,15.0883149,0.0001991,53.2179,60.8652,60.0201,300.0988,-4.407e-05,-9.89e-06,0.0,0 STARLINK-3563,1 51858U 22022G   23353.46333631 -.00000989  00000-0 -44070-4 0  9997,2 51858  53.2179  60.8652 0001991  60.0201 300.0988 15.08831490100550,6917.906,95.438,541.149,538.394,0.0
51858.0,STARLINK-3563,PAYLOAD,2023-12-20 10:57:58,15.08817206,0.0001813,53.218,56.4024,89.509,270.611,0.0001815,2.6e-05,0.0,0 STARLINK-3563,1 51858U 22022G   23354.45693225  .00002600  00000-0  18150-3 0  9994,2 51858  53.2180  56.4024 0001813  89.5090 270.6110 15.08817206100706,6917.95,95.439,541.069,538.561,0.0
51858.0,STARLINK-3563,PAYLOAD,2023-12-21 10:48:44,15.08848105,0.0001714,53.218,51.9368,102.0808,258.0377,0.00025851,3.829e-05,0.0,0 STARLINK-3563,1 51858U 22022G   23355.45051928  .00003829  00000-0  25851-3 0  9993,2 51858  53.2180  51.9368 0001714 102.0808 258.0377 15.08848105100858,6917.856,95.437,540.906,538.535,0.0
51858.0,STARLINK-3563,PAYLOAD,2023-12-22 09:04:09,15.0883977,0.0001663,53.2177,47.7751,103.8023,256.3154,0.00010933,1.452e-05,0.0,0 STARLINK-3563,1 51858U 22022G   23356.37789183  .00001452  00000-0  10933-3 0  9991,2 51858  53.2177  47.7751 0001663 103.8023 256.3154 15.08839770100991,6917.881,95.438,540.897,538.596,0.0
51858.0,STARLINK-3563,PAYLOAD,2023-12-23 10:30:20,15.08842919,0.0001677,53.2182,43.0176,104.4196,255.6983,-4.2128e-05,-9.59e-06,0.0,0 STARLINK-3563,1 51858U 22022G   23357.43773550 -.00000959  00000-0 -42128-4 0  9995,2 51858  53.2182  43.0176 0001677 104.4196 255.6983 15.08842919101150,6917.871,95.437,540.897,538.576,0.0
51858.0,STARLINK-3563,PAYLOAD,2023-12-24 11:56:29,15.08850997,0.000178,53.2192,38.2515,99.8926,260.2267,0.00013818,1.912e-05,0.0,0 STARLINK-3563,1 51858U 22022G   23358.49756705  .00001912  00000-0  13818-3 0  9996,2 51858  53.2192  38.2515 0001780  99.8926 260.2267 15.08850997101317,6917.847,95.437,540.943,538.48,0.0
51858.0,STARLINK-3563,PAYLOAD,2023-12-25 10:11:54,15.0884345,0.00021,53.2191,34.0904,69.7619,290.3598,0.00014671,2.048e-05,0.0,0 STARLINK-3563,1 51858U 22022G   23359.42493586  .00002048  00000-0  14671-3 0  9994,2 51858  53.2191  34.0904 0002100  69.7619 290.3598 15.08843450101456,6917.87,95.437,541.188,538.282,0.0
51858.0,STARLINK-3563,PAYLOAD,2023-12-26 02:05:46,15.08840218,0.0001569,53.2186,31.1184,104.7135,255.4031,-5.2949e-05,-1.131e-05,0.0,0 STARLINK-3563,1 51858U 22022G   23360.08734157 -.00001131  00000-0 -52949-4 0  9995,2 51858  53.2186  31.1184 0001569 104.7135 255.4031 15.08840218101553,6917.88,95.438,540.83,538.659,0.0
51858.0,STARLINK-3563,PAYLOAD,2023-12-26 06:51:55,15.08841479,0.000157,53.2176,30.2282,99.0164,261.1006,-4.4215e-05,-9.92e-06,0.0,0 STARLINK-3563,1 51858U 22022G   23360.28606092 -.00000992  00000-0 -44215-4 0  9994,2 51858  53.2176  30.2282 0001570  99.0164 261.1006 15.08841479101580,6917.876,95.437,540.827,538.655,0.0
51858.0,STARLINK-3563,PAYLOAD,2023-12-27 11:28:48,15.08896466,0.0001403,53.2184,24.8741,83.7861,276.3291,0.00077553,0.00012095,0.0,0 STARLINK-3563,1 51858U 22022G   23361.47834465  .00012095  00000-0  77553-3 0  9998,2 51858  53.2184  24.8741 0001403  83.7861 276.3291 15.08896466101767,6917.708,95.434,540.543,538.602,0.0
51858.0,STARLINK-3563,PAYLOAD,2023-12-28 01:47:19,15.08838416,0.0001869,53.2183,22.1943,139.5821,220.531,-9.3917e-05,-1.782e-05,0.0,0 STARLINK-3563,1 51858U 22022G   23362.07452696 -.00001782  00000-0 -93917-4 0  9993,2 51858  53.2183  22.1943 0001869 139.5821 220.5310 15.08838416101857,6917.885,95.438,541.043,538.457,0.0
51858.0,STARLINK-3563,PAYLOAD,2023-12-28 08:08:52,15.0883468,0.0002491,53.2192,21.0027,142.8039,217.3126,-3.8668e-05,-9.04e-06,0.0,0 STARLINK-3563,1 51858U 22022G   23362.33949414 -.00000904  00000-0 -38668-4 0  9998,2 51858  53.2192  21.0027 0002491 142.8039 217.3126 15.08834680101890,6917.897,95.438,541.485,538.038,0.0
51858.0,STARLINK-3563,PAYLOAD,2023-12-28 20:51:58,15.0883484,0.0001723,53.2191,18.6245,131.9823,228.1316,-0.00020146,-3.492e-05,0.0,0 STARLINK-3563,1 51858U 22022G   23362.86942162 -.00003492  00000-0 -20146-3 0  9995,2 51858  53.2191  18.6245 0001723 131.9823 228.1316 15.08834840101978,6917.896,95.438,540.953,538.569,0.0
51858.0,STARLINK-3563,PAYLOAD,2023-12-29 07:59:39,15.08840122,0.0001486,53.2181,16.5452,117.106,243.0084,-0.00021374,-3.688e-05,0.0,0 STARLINK-3563,1 51858U 22022G   23363.33310105 -.00003688  00000-0 -21374-3 0  9995,2 51858  53.2181  16.5452 0001486 117.1060 243.0084 15.08840122102046,6917.88,95.438,540.773,538.717,0.0
51858.0,STARLINK-3563,PAYLOAD,2023-12-30 01:28:54,15.08824182,0.0001429,53.2179,13.2768,118.3461,241.7675,0.00017208,2.451e-05,0.0,0 STARLINK-3563,1 51858U 22022G   23364.06174209  .00002451  00000-0  17208-3 0  9995,2 51858  53.2179  13.2768 0001429 118.3461 241.7675 15.08824182102153,6917.929,95.439,540.782,538.805,0.0
51858.0,STARLINK-3563,PAYLOAD,2023-12-30 07:50:26,15.08832484,0.0001387,53.2178,12.0883,109.8685,250.2456,0.00025801,3.82e-05,0.0,0 STARLINK-3563,1 51858U 22022G   23364.32670019  .00003820  00000-0  25801-3 0  9993,2 51858  53.2178  12.0883 0001387 109.8685 250.2456 15.08832484102193,6917.903,95.438,540.728,538.809,0.0
51858.0,STARLINK-3563,PAYLOAD,2023-12-31 01:19:42,15.08828186,0.0001474,53.218,8.8184,112.4595,247.6553,0.00017918,2.564e-05,0.0,0 STARLINK-3563,1 51858U 22022G   23365.05535109  .00002564  00000-0  17918-3 0  9998,2 51858  53.2180   8.8184 0001474 112.4595 247.6553 15.08828186102305,6917.916,95.438,540.801,538.762,0.0
51858.0,STARLINK-3563,PAYLOAD,2023-12-31 06:05:51,15.08831964,0.0001457,53.2172,7.9257,108.472,251.6431,0.00013318,1.832e-05,0.0,0 STARLINK-3563,1 51858U 22022G   23365.25407011  .00001832  00000-0  13318-3 0  9997,2 51858  53.2172   7.9257 0001457 108.4720 251.6431 15.08831964102334,6917.905,95.438,540.778,538.762,0.0
51858.0,STARLINK-3563,PAYLOAD,2024-01-01 09:07:24,15.0884716,0.0001398,53.2178,2.8695,106.2634,253.8512,0.00012349,1.678e-05,0.0,0 STARLINK-3563,1 51858U 22022G   24001.38014461  .00001678  00000-0  12349-3 0  9993,2 51858  53.2178   2.8695 0001398 106.2634 253.8512 15.08847160102502,6917.859,95.437,540.691,538.756,0.0
51858.0,STARLINK-3563,PAYLOAD,2024-01-02 04:12:02,15.08843506,0.0001442,53.2179,359.3005,108.2481,251.8668,0.00015798,2.227e-05,0.0,0 STARLINK-3563,1 51858U 22022G   24002.17502568  .00002227  00000-0  15798-3 0  9993,2 51858  53.2179 359.3005 0001442 108.2481 251.8668 15.08843506102623,6917.87,95.437,540.732,538.737,0.0
51858.0,STARLINK-3563,PAYLOAD,2024-01-02 07:22:48,15.08847201,0.000144,53.2172,358.7059,103.3539,256.7614,0.00020801,3.025e-05,0.0,0 STARLINK-3563,1 51858U 22022G   24002.30750427  .00003025  00000-0  20801-3 0  9995,2 51858  53.2172 358.7059 0001440 103.3539 256.7614 15.08847201102649,6917.858,95.437,540.72,538.727,0.0
51858.0,STARLINK-3563,PAYLOAD,2024-01-03 04:02:49,15.08841533,0.0001466,53.2181,354.8419,90.4317,269.6843,1.7484e-05,-1e-07,0.0,0 STARLINK-3563,1 51858U 22022G   24003.16863116 -.00000010  00000-0  17484-4 0  9996,2 51858  53.2181 354.8419 0001466  90.4317 269.6843 15.08841533102777,6917.876,95.437,540.755,538.727,0.0
51858.0,STARLINK-3563,PAYLOAD,2024-01-03 05:38:12,15.08842307,0.0001409,53.2175,354.5441,93.607,266.5083,2.1405e-05,5.3e-07,0.0,0 STARLINK-3563,1 51858U 22022G   24003.23486999  .00000053  00000-0  21405-4 0  9998,2 51858  53.2175 354.5441 0001409  93.6070 266.5083 15.08842307102783,6917.873,95.437,540.713,538.764,0.0
